METEOR-M2 2             
1 44387U 19038A   26074.25438356  .00000166  00000+0  91504-4 0  9997
2 44387  98.9092  60.1831 0000584 349.3933  10.7233 14.24336618347924
GPS BIII-2              
1 44506U 19056A   26073.65497499 -.00000072  00000+0  00000+0 0  9999
2 44506  55.6800 334.9029 0058240 197.9897 330.8097  2.00568616 48178
BEIDOU-3 M24            
1 44542U 19061A   26073.20132124 -.00000013  00000+0  00000+0 0  9992
2 44542  54.3984 185.9306 0008488  19.2225 340.7928  1.86229100 44027
BEIDOU-3 M23            
1 44543U 19061B   26073.45188475 -.00000012  00000+0  00000+0 0  9999
2 44543  54.3970 185.8909 0004923  10.3958  69.7972  1.86227431 44039
BEIDOU-3 M22            
1 44793U 19078A   26073.04051358 -.00000019  00000+0  00000+0 0  9995
2 44793  54.0216 303.1765 0007465  38.1970 321.9120  1.86232320 42878
BEIDOU-3 M21            
1 44794U 19078B   26073.71723725 -.00000016  00000+0  00000+0 0  9991
2 44794  53.9944 303.1159 0005495  33.8306 326.2620  1.86228018 42892
ELEKTRO-L 3             
1 44903U 19095A   26072.58515229 -.00000096  00000+0  00000+0 0  9992
2 44903   0.0380 340.0026 0001508   9.4736 108.2976  1.00270722 22751
GPS BIII-3              
1 45854U 20041A   26074.23277601 -.00000049  00000+0  00000+0 0  9992
2 45854  56.6123  32.5896 0061514 205.1444 322.6890  2.00560555 42151
COSMOS 2547             
1 46805U 20075A   26071.27634948  .00000011  00000+0  00000+0 0  9996
2 46805  64.5993 195.7069 0007007 230.8854 129.0383  2.13100396 41840
GPS BIII-4              
1 46826U 20078A   26074.28281818  .00000009  00000+0  00000+0 0  9997
2 46826  53.9997 214.5850 0068810 204.5097 332.9899  2.00565421 39623
GSAT0223 (GALILEO 27)   
1 49809U 21116A   26073.28386141 -.00000081  00000+0  00000+0 0  9990
2 49809  57.1915 344.2418 0001958 285.8605 269.7171  1.70475737 26566
GSAT0224 (GALILEO 28)   
1 49810U 21116B   26064.29072237 -.00000105  00000+0  00000+0 0  9998
2 49810  57.1948 344.4822 0001942 295.2728 253.6293  1.70475760 26438
GOES 18                 
1 51850U 22021A   26074.01225098  .00000096  00000+0  00000+0 0  9995
2 51850   0.0356  39.0500 0000826  24.7142 336.2554  1.00272979  5648
COSMOS 2557 (706K)      
1 52984U 22075A   26072.84916696 -.00000029  00000+0  00000+0 0  9990
2 52984  64.3539 317.8460 0011386 283.8913  76.0424  2.13102035 28686
METEOSAT-12 (MTG-I1)    
1 54743U 22170C   26074.28151144 -.00000008  00000+0  00000+0 0  9997
2 54743   0.7124  23.0968 0001756 290.7971 319.9822  1.00271392 12036
METEOR-M2 3             
1 57166U 23091A   26074.29808229  .00000003  00000+0  20072-4 0  9996
2 57166  98.6202 131.1499 0005097  86.5453 273.6309 14.24038213141154
COSMOS 2569 (703K)      
1 57517U 23114A   26072.99419750  .00000055  00000+0  00000+0 0  9995
2 57517  65.2480  75.8292 0012947 292.2655  67.6350  2.13103986 20236
METEOR-M2 4             
1 59051U 24039A   26074.27654127  .00000024  00000+0  30410-4 0  9998
2 59051  98.6912  34.8059 0008200  82.4837 277.7272 14.22418208105910
GSAT0225 (GALILEO 29)   
1 59598U 24079A   26073.38599072  .00000038  00000+0  00000+0 0  9998
2 59598  55.0556 103.7282 0002816 259.7008 104.1588  1.70475013 11709
GSAT0227 (GALILEO 30)   
1 59600U 24079C   26072.39006147  .00000031  00000+0  00000+0 0  9991
2 59600  55.0508 103.7545 0000363  35.4320 324.6432  1.70474883 11737
GSAT0232 (GALILEO 32)   
1 61182U 24167A   26048.66150565  .00000069  00000+0  00000+0 0  9995
2 61182  55.2225 224.5881 0003600 296.6314 116.1306  1.70443939  8265
GSAT0226 (GALILEO 31)   
1 61183U 24167B   26072.77594144  .00000035  00000+0  00000+0 0  9993
2 61183  55.2155 223.9355 0001584 137.4612  46.3182  1.70474359  9222
GSAT0234 (GALILEO 34)   
1 67162U 25302C   26074.08993896  .00000041  00000+0  00000+0 0  9998
2 67162  54.2713 104.8109 0002770 226.2129 140.3863  1.70474988  1575
